<?xml version="1.0" encoding="UTF-8"?>
<ndm xmlns:xsi="http://www.w3.org/2001/XMLSchema-instance" xsi:noNamespaceSchemaLocation="https://sanaregistry.org/r/ndmxml_unqualified/ndmxml-2.0.0-master-2.0.xsd">
<omm id="CCSDS_OMM_VERS" version="2.0">
<header><CREATION_DATE/><ORIGINATOR/></header><body><segment><metadata><OBJECT_NAME>ORBCOMM FM06</OBJECT_NAME><OBJECT_ID>1997-084G</OBJECT_ID><CENTER_NAME>EARTH</CENTER_NAME><REF_FRAME>TEME</REF_FRAME><TIME_SYSTEM>UTC</TIME_SYSTEM><MEAN_ELEMENT_THEORY>SGP4</MEAN_ELEMENT_THEORY></metadata><data><meanElements><EPOCH>2024-11-02T22:48:08.385120</EPOCH><MEAN_MOTION>14.44432437</MEAN_MOTION><ECCENTRICITY>.000274</ECCENTRICITY><INCLINATION>45.0155</INCLINATION><RA_OF_ASC_NODE>13.1007</RA_OF_ASC_NODE><ARG_OF_PERICENTER>238.5883</ARG_OF_PERICENTER><MEAN_ANOMALY>291.5292</MEAN_ANOMALY></meanElements><tleParameters><EPHEMERIS_TYPE>0</EPHEMERIS_TYPE><CLASSIFICATION_TYPE>U</CLASSIFICATION_TYPE><NORAD_CAT_ID>25118</NORAD_CAT_ID><ELEMENT_SET_NO>999</ELEMENT_SET_NO><REV_AT_EPOCH>40879</REV_AT_EPOCH><BSTAR>.28797E-2</BSTAR><MEAN_MOTION_DOT>.9897E-4</MEAN_MOTION_DOT><MEAN_MOTION_DDOT>0</MEAN_MOTION_DDOT></tleParameters></data></segment></body></omm>
<omm id="CCSDS_OMM_VERS" version="2.0">
<header><CREATION_DATE/><ORIGINATOR/></header><body><segment><metadata><OBJECT_NAME>ORBCOMM FM07</OBJECT_NAME><OBJECT_ID>1997-084H</OBJECT_ID><CENTER_NAME>EARTH</CENTER_NAME><REF_FRAME>TEME</REF_FRAME><TIME_SYSTEM>UTC</TIME_SYSTEM><MEAN_ELEMENT_THEORY>SGP4</MEAN_ELEMENT_THEORY></metadata><data><meanElements><EPOCH>2024-11-02T22:06:03.771072</EPOCH><MEAN_MOTION>14.44311559</MEAN_MOTION><ECCENTRICITY>.0003033</ECCENTRICITY><INCLINATION>45.0156</INCLINATION><RA_OF_ASC_NODE>13.9059</RA_OF_ASC_NODE><ARG_OF_PERICENTER>203.3982</ARG_OF_PERICENTER><MEAN_ANOMALY>156.6731</MEAN_ANOMALY></meanElements><tleParameters><EPHEMERIS_TYPE>0</EPHEMERIS_TYPE><CLASSIFICATION_TYPE>U</CLASSIFICATION_TYPE><NORAD_CAT_ID>25119</NORAD_CAT_ID><ELEMENT_SET_NO>999</ELEMENT_SET_NO><REV_AT_EPOCH>40878</REV_AT_EPOCH><BSTAR>.26388E-2</BSTAR><MEAN_MOTION_DOT>.9033E-4</MEAN_MOTION_DOT><MEAN_MOTION_DDOT>0</MEAN_MOTION_DDOT></tleParameters></data></segment></body></omm>
<omm id="CCSDS_OMM_VERS" version="2.0">
<header><CREATION_DATE/><ORIGINATOR/></header><body><segment><metadata><OBJECT_NAME>ORBCOMM FM03</OBJECT_NAME><OBJECT_ID>1998-007B</OBJECT_ID><CENTER_NAME>EARTH</CENTER_NAME><REF_FRAME>TEME</REF_FRAME><TIME_SYSTEM>UTC</TIME_SYSTEM><MEAN_ELEMENT_THEORY>SGP4</MEAN_ELEMENT_THEORY></metadata><data><meanElements><EPOCH>2024-11-02T19:52:33.011040</EPOCH><MEAN_MOTION>14.33259381</MEAN_MOTION><ECCENTRICITY>.004871</ECCENTRICITY><INCLINATION>107.9673</INCLINATION><RA_OF_ASC_NODE>30.9419</RA_OF_ASC_NODE><ARG_OF_PERICENTER>283.2167</ARG_OF_PERICENTER><MEAN_ANOMALY>76.3542</MEAN_ANOMALY></meanElements><tleParameters><EPHEMERIS_TYPE>0</EPHEMERIS_TYPE><CLASSIFICATION_TYPE>U</CLASSIFICATION_TYPE><NORAD_CAT_ID>25158</NORAD_CAT_ID><ELEMENT_SET_NO>999</ELEMENT_SET_NO><REV_AT_EPOCH>39159</REV_AT_EPOCH><BSTAR>.22295E-2</BSTAR><MEAN_MOTION_DOT>.6101E-4</MEAN_MOTION_DOT><MEAN_MOTION_DDOT>0</MEAN_MOTION_DDOT></tleParameters></data></segment></body></omm>
<omm id="CCSDS_OMM_VERS" version="2.0">
<header><CREATION_DATE/><ORIGINATOR/></header><body><segment><metadata><OBJECT_NAME>ORBCOMM FM04</OBJECT_NAME><OBJECT_ID>1998-007C</OBJECT_ID><CENTER_NAME>EARTH</CENTER_NAME><REF_FRAME>TEME</REF_FRAME><TIME_SYSTEM>UTC</TIME_SYSTEM><MEAN_ELEMENT_THEORY>SGP4</MEAN_ELEMENT_THEORY></metadata><data><meanElements><EPOCH>2024-11-02T22:09:35.715456</EPOCH><MEAN_MOTION>14.33534465</MEAN_MOTION><ECCENTRICITY>.0044348</ECCENTRICITY><INCLINATION>107.9658</INCLINATION><RA_OF_ASC_NODE>34.1979</RA_OF_ASC_NODE><ARG_OF_PERICENTER>280.6412</ARG_OF_PERICENTER><MEAN_ANOMALY>78.9735</MEAN_ANOMALY></meanElements><tleParameters><EPHEMERIS_TYPE>0</EPHEMERIS_TYPE><CLASSIFICATION_TYPE>U</CLASSIFICATION_TYPE><NORAD_CAT_ID>25159</NORAD_CAT_ID><ELEMENT_SET_NO>999</ELEMENT_SET_NO><REV_AT_EPOCH>39178</REV_AT_EPOCH><BSTAR>.26691E-2</BSTAR><MEAN_MOTION_DOT>.7356E-4</MEAN_MOTION_DOT><MEAN_MOTION_DDOT>0</MEAN_MOTION_DDOT></tleParameters></data></segment></body></omm>
<omm id="CCSDS_OMM_VERS" version="2.0">
<header><CREATION_DATE/><ORIGINATOR/></header><body><segment><metadata><OBJECT_NAME>ORBCOMM FM17</OBJECT_NAME><OBJECT_ID>1998-046A</OBJECT_ID><CENTER_NAME>EARTH</CENTER_NAME><REF_FRAME>TEME</REF_FRAME><TIME_SYSTEM>UTC</TIME_SYSTEM><MEAN_ELEMENT_THEORY>SGP4</MEAN_ELEMENT_THEORY></metadata><data><meanElements><EPOCH>2024-11-02T21:04:25.046688</EPOCH><MEAN_MOTION>14.34098673</MEAN_MOTION><ECCENTRICITY>.000075</ECCENTRICITY><INCLINATION>44.9935</INCLINATION><RA_OF_ASC_NODE>244.9553</RA_OF_ASC_NODE><ARG_OF_PERICENTER>168.9686</ARG_OF_PERICENTER><MEAN_ANOMALY>191.1177</MEAN_ANOMALY></meanElements><tleParameters><EPHEMERIS_TYPE>0</EPHEMERIS_TYPE><CLASSIFICATION_TYPE>U</CLASSIFICATION_TYPE><NORAD_CAT_ID>25413</NORAD_CAT_ID><ELEMENT_SET_NO>999</ELEMENT_SET_NO><REV_AT_EPOCH>37067</REV_AT_EPOCH><BSTAR>.23078E-2</BSTAR><MEAN_MOTION_DOT>.6379E-4</MEAN_MOTION_DOT><MEAN_MOTION_DDOT>0</MEAN_MOTION_DDOT></tleParameters></data></segment></body></omm>
<omm id="CCSDS_OMM_VERS" version="2.0">
<header><CREATION_DATE/><ORIGINATOR/></header><body><segment><metadata><OBJECT_NAME>ORBCOMM FM18</OBJECT_NAME><OBJECT_ID>1998-046B</OBJECT_ID><CENTER_NAME>EARTH</CENTER_NAME><REF_FRAME>TEME</REF_FRAME><TIME_SYSTEM>UTC</TIME_SYSTEM><MEAN_ELEMENT_THEORY>SGP4</MEAN_ELEMENT_THEORY></metadata><data><meanElements><EPOCH>2024-11-02T22:23:54.912480</EPOCH><MEAN_MOTION>14.37190815</MEAN_MOTION><ECCENTRICITY>.0004081</ECCENTRICITY><INCLINATION>44.9910</INCLINATION><RA_OF_ASC_NODE>167.8504</RA_OF_ASC_NODE><ARG_OF_PERICENTER>213.6426</ARG_OF_PERICENTER><MEAN_ANOMALY>146.4163</MEAN_ANOMALY></meanElements><tleParameters><EPHEMERIS_TYPE>0</EPHEMERIS_TYPE><CLASSIFICATION_TYPE>U</CLASSIFICATION_TYPE><NORAD_CAT_ID>25414</NORAD_CAT_ID><ELEMENT_SET_NO>999</ELEMENT_SET_NO><REV_AT_EPOCH>37168</REV_AT_EPOCH><BSTAR>.26122E-2</BSTAR><MEAN_MOTION_DOT>.7712E-4</MEAN_MOTION_DOT><MEAN_MOTION_DDOT>0</MEAN_MOTION_DDOT></tleParameters></data></segment></body></omm>
<omm id="CCSDS_OMM_VERS" version="2.0">
<header><CREATION_DATE/><ORIGINATOR/></header><body><segment><metadata><OBJECT_NAME>ORBCOMM FM19</OBJECT_NAME><OBJECT_ID>1998-046C</OBJECT_ID><CENTER_NAME>EARTH</CENTER_NAME><REF_FRAME>TEME</REF_FRAME><TIME_SYSTEM>UTC</TIME_SYSTEM><MEAN_ELEMENT_THEORY>SGP4</MEAN_ELEMENT_THEORY></metadata><data><meanElements><EPOCH>2024-11-02T20:56:59.404128</EPOCH><MEAN_MOTION>14.37014736</MEAN_MOTION><ECCENTRICITY>.0002952</ECCENTRICITY><INCLINATION>44.9920</INCLINATION><RA_OF_ASC_NODE>169.7896</RA_OF_ASC_NODE><ARG_OF_PERICENTER>202.3841</ARG_OF_PERICENTER><MEAN_ANOMALY>273.6165</MEAN_ANOMALY></meanElements><tleParameters><EPHEMERIS_TYPE>0</EPHEMERIS_TYPE><CLASSIFICATION_TYPE>U</CLASSIFICATION_TYPE><NORAD_CAT_ID>25415</NORAD_CAT_ID><ELEMENT_SET_NO>999</ELEMENT_SET_NO><REV_AT_EPOCH>37163</REV_AT_EPOCH><BSTAR>.25289E-2</BSTAR><MEAN_MOTION_DOT>.7434E-4</MEAN_MOTION_DOT><MEAN_MOTION_DDOT>0</MEAN_MOTION_DDOT></tleParameters></data></segment></body></omm>

</ndm>
