ORBCOMM FM06            
1 25118U 97084G   24307.95009705  .00009897  00000+0  28797-2 0  9993
2 25118  45.0155  13.1007 0002740 238.5883 291.5292 14.44432437408795
ORBCOMM FM07            
1 25119U 97084H   24307.92087698  .00009033  00000+0  26388-2 0  9994
2 25119  45.0156  13.9059 0003033 203.3982 156.6731 14.44311559408787
ORBCOMM FM03            
1 25158U 98007B   24307.82815985  .00006101  00000+0  22295-2 0  9996
2 25158 107.9673  30.9419 0048710 283.2167  76.3542 14.33259381391594
ORBCOMM FM04            
1 25159U 98007C   24307.92333004  .00007356  00000+0  26691-2 0  9992
2 25159 107.9658  34.1979 0044348 280.6412  78.9735 14.33534465391784
ORBCOMM FM17            
1 25413U 98046A   24307.87806767  .00006379  00000+0  23078-2 0  9993
2 25413  44.9935 244.9553 0000750 168.9686 191.1177 14.34098673370674
ORBCOMM FM18            
1 25414U 98046B   24307.93327445  .00007712  00000+0  26122-2 0  9997
2 25414  44.9910 167.8504 0004081 213.6426 146.4163 14.37190815371682
ORBCOMM FM19            
1 25415U 98046C   24307.87290977  .00007434  00000+0  25289-2 0  9994
2 25415  44.9920 169.7896 0002952 202.3841 273.6165 14.37014736371637
